NORAD_CAT_ID,OBJECT_NAME,OBJECT_TYPE,EPOCH,MEAN_MOTION,ECCENTRICITY,INCLINATION,RA_OF_ASC_NODE,ARG_OF_PERICENTER,MEAN_ANOMALY,BSTAR,MEAN_MOTION_DOT,MEAN_MOTION_DDOT,TLE_LINE0,TLE_LINE1,TLE_LINE2,SEMIMAJOR_AXIS,PERIOD,APOGEE,PERIGEE,DECAYED
56471.0,STARLINK-5521,PAYLOAD,2023-11-11 14:45:25,14.98331564,0.0002985,69.9993,105.3736,269.2131,90.8686,-1.0828e-05,-2.22e-06,0.0,0 STARLINK-5521,1 56471U 23064Z   23315.61488206 -.00000222  00000-0 -10828-4 0  9998,2 56471  69.9993 105.3736 0002985 269.2131  90.8686 14.98331564 28554,6950.188,96.107,574.128,569.978,0.0
56471.0,STARLINK-5521,PAYLOAD,2023-11-11 19:33:49,14.98331278,0.0002945,69.9994,104.8686,268.5242,91.5579,1.2506e-05,5.6e-07,0.0,0 STARLINK-5521,1 56471U 23064Z   23315.81516139  .00000056  00000-0  12506-4 0  9995,2 56471  69.9994 104.8686 0002945 268.5242  91.5579 14.98331278 28948,6950.189,96.107,574.101,570.007,0.0
56471.0,STARLINK-5521,PAYLOAD,2023-11-12 13:11:18,14.983269,0.0003051,69.9992,103.0166,269.3269,90.754,4.4818e-05,4.42e-06,0.0,0 STARLINK-5521,1 56471U 23064Z   23316.54952325  .00000442  00000-0  44818-4 0  9997,2 56471  69.9992 103.0166 0003051 269.3269  90.7540 14.98326900 28694,6950.202,96.107,574.188,569.947,0.0
56471.0,STARLINK-5521,PAYLOAD,2023-11-12 19:35:50,14.98329322,0.0003059,69.9993,102.3432,269.2762,90.8046,4.5461e-05,4.49e-06,0.0,0 STARLINK-5521,1 56471U 23064Z   23316.81656190  .00000449  00000-0  45461-4 0  9990,2 56471  69.9993 102.3432 0003059 269.2762  90.8046 14.98329322 29096,6950.195,96.107,574.186,569.934,0.0
56471.0,STARLINK-5521,PAYLOAD,2023-11-13 13:13:19,14.98334396,0.0003069,69.9993,100.4915,269.1359,90.9448,1.583e-05,9.6e-07,0.0,0 STARLINK-5521,1 56471U 23064Z   23317.55091819  .00000096  00000-0  15830-4 0  9998,2 56471  69.9993 100.4915 0003069 269.1359  90.9448 14.98334396 28849,6950.179,96.107,574.177,569.911,0.0
56471.0,STARLINK-5521,PAYLOAD,2023-11-13 16:25:35,14.98337198,0.0003075,69.9993,100.155,269.3967,90.6839,4.6183e-05,4.58e-06,0.0,0 STARLINK-5521,1 56471U 23064Z   23317.68443510  .00000458  00000-0  46183-4 0  9998,2 56471  69.9993 100.1550 0003075 269.3967  90.6839 14.98337198 29222,6950.171,96.107,574.173,569.898,0.0
56471.0,STARLINK-5521,PAYLOAD,2023-11-14 11:39:12,14.98316795,0.0003087,69.9994,98.1353,268.4776,91.6029,0.00014957,1.691e-05,0.0,0 STARLINK-5521,1 56471U 23064Z   23318.48556465  .00001691  00000-0  14957-3 0  9994,2 56471  69.9994  98.1353 0003087 268.4776  91.6029 14.98316795 29346,6950.234,96.108,574.244,569.953,0.0
56471.0,STARLINK-5521,PAYLOAD,2023-11-14 13:15:20,14.98324202,0.0003243,69.9993,97.967,268.9505,91.1282,-1.3307e-06,-1.09e-06,0.0,0 STARLINK-5521,1 56471U 23064Z   23318.55232342 -.00000109  00000-0 -13307-5 0  9992,2 56471  69.9993  97.9670 0003243 268.9505  91.1282 14.98324202 28991,6950.211,96.107,574.33,569.822,0.0
56471.0,STARLINK-5521,PAYLOAD,2023-11-14 16:27:36,14.98327254,0.0003043,69.999,97.6299,265.5083,94.5728,-4.5035e-05,-6.3e-06,0.0,0 STARLINK-5521,1 56471U 23064Z   23318.68584301 -.00000630  00000-0 -45035-4 0  9992,2 56471  69.9990  97.6299 0003043 265.5083  94.5728 14.98327254 29010,6950.201,96.107,574.181,569.951,0.0
56471.0,STARLINK-5521,PAYLOAD,2023-11-15 13:17:21,14.98333665,0.0003336,69.9984,95.4407,272.1709,87.9068,-2.8313e-05,-4.31e-06,0.0,0 STARLINK-5521,1 56471U 23064Z   23319.55371784 -.00000431  00000-0 -28313-4 0  9997,2 56471  69.9984  95.4407 0003336 272.1709  87.9068 14.98333665 29144,6950.182,96.107,574.365,569.728,0.0
56471.0,STARLINK-5521,PAYLOAD,2023-11-17 02:08:27,14.98327001,0.0002914,69.9998,91.5693,272.6575,87.425,-2.068e-06,-1.18e-06,0.0,0 STARLINK-5521,1 56471U 23064Z   23321.08920262 -.00000118  00000-0 -20680-5 0  9991,2 56471  69.9998  91.5693 0002914 272.6575  87.4250 14.98327001 29730,6950.202,96.107,574.092,570.042,0.0
56471.0,STARLINK-5521,PAYLOAD,2023-11-17 14:57:31,14.98324655,0.0002905,69.9999,90.2242,270.8782,89.2044,-4.6272e-05,-6.45e-06,0.0,0 STARLINK-5521,1 56471U 23064Z   23321.62328667 -.00000645  00000-0 -46272-4 0  9991,2 56471  69.9999  90.2242 0002905 270.8782  89.2044 14.98324655 29459,6950.209,96.107,574.093,570.055,0.0
56471.0,STARLINK-5521,PAYLOAD,2023-11-18 11:47:16,14.98326088,0.0003003,69.9996,88.0354,270.8391,89.2424,7.7012e-05,8.26e-06,0.0,0 STARLINK-5521,1 56471U 23064Z   23322.49116258  .00000826  00000-0  77012-4 0  9993,2 56471  69.9996  88.0354 0003003 270.8391  89.2424 14.98326088 29949,6950.205,96.107,574.157,569.983,0.0
56471.0,STARLINK-5521,PAYLOAD,2023-11-18 14:59:32,14.98329265,0.0003043,69.9994,87.6987,270.5215,89.5595,0.00011514,1.281e-05,0.0,0 STARLINK-5521,1 56471U 23064Z   23322.62467954  .00001281  00000-0  11514-3 0  9990,2 56471  69.9994  87.6987 0003043 270.5215  89.5595 14.98329265 29605,6950.195,96.107,574.175,569.945,0.0
56471.0,STARLINK-5521,PAYLOAD,2023-11-19 11:49:17,14.98329976,0.000313,69.9992,85.5103,270.5335,89.5465,0.00010812,1.197e-05,0.0,0 STARLINK-5521,1 56471U 23064Z   23323.49255936  .00001197  00000-0  10812-3 0  9997,2 56471  69.9992  85.5103 0003130 270.5335  89.5465 14.98329976 30090,6950.193,96.107,574.233,569.883,0.0
56471.0,STARLINK-5521,PAYLOAD,2023-11-19 21:26:04,14.98337592,0.0003186,69.9993,84.5005,271.4658,88.6137,0.00013283,1.493e-05,0.0,0 STARLINK-5521,1 56471U 23064Z   23323.89311267  .00001493  00000-0  13283-3 0  9995,2 56471  69.9993  84.5005 0003186 271.4658  88.6137 14.98337592 29794,6950.169,96.107,574.249,569.82,0.0
56471.0,STARLINK-5521,PAYLOAD,2023-11-20 15:03:33,14.98336784,0.0003179,69.9993,82.6489,271.0704,89.0091,-1.4512e-06,-1.1e-06,0.0,0 STARLINK-5521,1 56471U 23064Z   23324.62747527 -.00000110  00000-0 -14512-5 0  9994,2 56471  69.9993  82.6489 0003179 271.0704  89.0091 14.98336784 29908,6950.172,96.107,574.246,569.827,0.0
56471.0,STARLINK-5521,PAYLOAD,2023-11-20 18:15:49,14.98338382,0.0003175,69.9994,82.3122,271.1077,88.9718,1.6691e-05,1.06e-06,0.0,0 STARLINK-5521,1 56471U 23064Z   23324.76099311  .00000106  00000-0  16691-4 0  9992,2 56471  69.9994  82.3122 0003175 271.1077  88.9718 14.98338382 30283,6950.167,96.106,574.239,569.825,0.0
56471.0,STARLINK-5521,PAYLOAD,2023-11-20 21:28:05,14.98339172,0.0003183,69.9994,81.9754,271.3801,88.6993,2.1332e-05,1.62e-06,0.0,0 STARLINK-5521,1 56471U 23064Z   23324.89451160  .00000162  00000-0  21332-4 0  9990,2 56471  69.9994  81.9754 0003183 271.3801  88.6993 14.98339172 29946,6950.165,96.106,574.242,569.817,0.0
56471.0,STARLINK-5521,PAYLOAD,2023-11-21 10:17:11,14.98327603,0.0003126,69.9996,80.6292,272.0706,88.0095,-6.8056e-05,-9.05e-06,0.0,0 STARLINK-5521,1 56471U 23064Z   23325.42860130 -.00000905  00000-0 -68056-4 0  9992,2 56471  69.9996  80.6292 0003126 272.0706  88.0095 14.98327603 30383,6950.2,96.107,574.238,569.893,0.0
56471.0,STARLINK-5521,PAYLOAD,2023-11-21 13:29:27,14.98326331,0.0003237,69.9996,80.2926,273.9073,86.1715,-7.7613e-05,-1.019e-05,0.0,0 STARLINK-5521,1 56471U 23064Z   23325.56212263 -.00001019  00000-0 -77613-4 0  9991,2 56471  69.9996  80.2926 0003237 273.9073  86.1715 14.98326331 30041,6950.204,96.107,574.319,569.819,0.0
56471.0,STARLINK-5521,PAYLOAD,2023-11-21 19:53:58,14.98336869,0.000317,69.9997,79.6192,274.3541,85.7256,4.1043e-06,-4.4e-07,0.0,0 STARLINK-5521,1 56471U 23064Z   23325.82915312 -.00000044  00000-0  41043-5 0  9990,2 56471  69.9997  79.6192 0003170 274.3541  85.7256 14.98336869 30086,6950.172,96.107,574.24,569.833,0.0
56471.0,STARLINK-5521,PAYLOAD,2023-11-22 13:31:27,14.98335393,0.0003104,69.9999,77.7679,274.8174,85.2631,7.5751e-05,8.11e-06,0.0,0 STARLINK-5521,1 56471U 23064Z   23326.56350987  .00000811  00000-0  75751-4 0  9996,2 56471  69.9999  77.7679 0003104 274.8174  85.2631 14.98335393 30196,6950.176,96.107,574.199,569.884,0.0
56471.0,STARLINK-5521,PAYLOAD,2023-11-22 16:43:42,14.98342175,0.0002967,70.0,77.4313,277.3892,82.693,0.00011851,1.322e-05,0.0,0 STARLINK-5521,1 56471U 23064Z   23326.69702370  .00001322  00000-0  11851-3 0  9995,2 56471  70.0000  77.4313 0002967 277.3892  82.6930 14.98342175 30576,6950.155,96.106,574.082,569.958,0.0
56471.0,STARLINK-5521,PAYLOAD,2023-11-23 11:57:21,14.98321554,0.0002723,70.0008,75.4124,263.9831,96.1018,-0.00012139,-1.541e-05,0.0,0 STARLINK-5521,1 56471U 23064Z   23327.49816138 -.00001541  00000-0 -12139-3 0  9997,2 56471  70.0008  75.4124 0002723 263.9831  96.1018 14.98321554 30694,6950.219,96.108,573.977,570.191,0.0
56471.0,STARLINK-5521,PAYLOAD,2023-11-23 13:33:29,14.98318461,0.0002697,70.001,75.2439,257.977,102.1086,-8.5706e-05,-1.115e-05,0.0,0 STARLINK-5521,1 56471U 23064Z   23327.56492247 -.00001115  00000-0 -85706-4 0  9994,2 56471  70.0010  75.2439 0002697 257.9770 102.1086 14.98318461 30347,6950.229,96.108,573.968,570.219,0.0
56471.0,STARLINK-5521,PAYLOAD,2023-11-23 16:45:45,14.98322807,0.0003164,70.0001,74.9065,273.1378,86.9419,-5.9915e-05,-8.08e-06,0.0,0 STARLINK-5521,1 56471U 23064Z   23327.69843994 -.00000808  00000-0 -59915-4 0  9998,2 56471  70.0001  74.9065 0003164 273.1378  86.9419 14.98322807 30362,6950.215,96.107,574.279,569.881,0.0
56471.0,STARLINK-5521,PAYLOAD,2023-11-24 11:59:22,14.983266,0.0003016,70.0002,72.8863,270.35,89.7314,-0.00014213,-1.788e-05,0.0,0 STARLINK-5521,1 56471U 23064Z   23328.49956201 -.00001788  00000-0 -14213-3 0  9992,2 56471  70.0002  72.8863 0003016 270.3500  89.7314 14.98326600 30841,6950.203,96.107,574.165,569.972,0.0
56471.0,STARLINK-5521,PAYLOAD,2023-11-24 13:35:30,14.98324414,0.0002405,70.0025,72.7215,239.2603,120.8319,-0.00015793,-1.976e-05,0.0,0 STARLINK-5521,1 56471U 23064Z   23328.56632362 -.00001976  00000-0 -15793-3 0  9992,2 56471  70.0025  72.7215 0002405 239.2603 120.8319 14.98324414 30499,6950.21,96.107,573.747,570.404,0.0
56471.0,STARLINK-5521,PAYLOAD,2023-11-24 18:23:53,14.98334033,0.0003063,70.0023,72.2156,253.365,106.7173,-2.5617e-05,-3.99e-06,0.0,0 STARLINK-5521,1 56471U 23064Z   23328.76659248 -.00000399  00000-0 -25617-4 0  9991,2 56471  70.0023  72.2156 0003063 253.3650 106.7173 14.98334033 30888,6950.18,96.107,574.174,569.917,0.0
